{"version": 0.6, "generator": "Overpass API 0.7.60.6 e2dc3e5b", "osm3s": {"timestamp_osm_base": "2023-07-05T08:24:21Z", "copyright": "The data included in this document is from www.openstreetmap.org. The data is made available under ODbL."}, "elements": [{"type": "node", "id": 413712306, "lat": 55.6623353, "lon": 12.517756, "tags": {"fvst:navnelbnr": "1250477", "name": "Vores br\u00f8d", "opening_hours": "Mo-Fr 06:00-18:00; Sa-Su 06:00-17:00", "organic": "yes", "ref:DK:cvr": "43402234", "ref:DK:cvr:pnummer": "1028428975", "shop": "bakery", "wheelchair": "limited"}}, {"type": "node", "id": 497381655, "lat": 55.6646268, "lon": 12.5114914, "tags": {"branch": "Valby Torv", "fvst:navnelbnr": "119742", "name": "Kvickly Bager", "opening_hours": "Mo-Fr 07:00-20:00; Sa 07:00-17:00", "ref:DK:cvr": "26259495", "shop": "bakery", "wheelchair": "yes"}}, {"type": "node", "id": 552383335, "lat": 55.7046958, "lon": 12.5007032, "tags": {"fvst:navnelbnr": "114074", "name": "Kirstens Konditori", "ref:DK:cvr": "20368691", "shop": "bakery", "wheelchair": "yes"}}, {"type": "node", "id": 560942644, "lat": 55.6829634, "lon": 12.573528, "tags": {"brand": "Lagkagehuset", "brand:wikidata": "Q12323572", "fvst:navnelbnr": "117635", "name": "Lagkagehuset", "opening_hours": "Mo-Fr 06:30-19:00; Sa 08:00-19:00; Su 08:00-17:00", "ref:DK:cvr": "20213094", "shop": "bakery", "toilets:wheelchair": "yes", "wheelchair": "yes"}}, {"type": "node", "id": 612519188, "lat": 55.7060565, "lon": 12.5777176, "tags": {"alt_name": "Bosses Bageri og Konditori", "fvst:navnelbnr": "112424", "indoor_seating": "yes", "name": "Bager Bosse", "opening_hours": "06:00-18:00; Mo off", "outdoor_seating": "no", "payment:credit_cards": "yes", "payment:debit_cards": "yes", "ref:DK:cvr": "20016000", "shop": "bakery", "smoking": "no", "website": "http://bagerbosse.dk", "wheelchair": "limited"}}, {"type": "node", "id": 736442037, "lat": 55.6977348, "lon": 12.5529712, "tags": {"check_date": "2023-05-08", "fvst:navnelbnr": "113127", "name": "Br\u00f8dkunsten", "opening_hours": "Mo-Fr 05:00-18:00; Sa-Su 05:00-17:00", "phone": "+4535391739", "ref:DK:cvr": "27308937", "shop": "bakery", "website": "http://brodkunsten.dk/", "wheelchair": "limited"}}, {"type": "node", "id": 861265501, "lat": 55.664042, "lon": 12.5425786, "tags": {"fvst:navnelbnr": "1274842", "indoor_seating": "yes", "name": "Bagerdygtigt Enghave", "outdoor_seating": "yes", "phone": "+45 3321 2952", "ref:DK:cvr": "37577170", "ref:DK:cvr:pnummer": "1028910610", "shop": "bakery", "website": "https://bagerdygtigt.dk/", "wheelchair": "no"}}, {"type": "node", "id": 870260227, "lat": 55.6577877, "lon": 12.5671729, "tags": {"branch": "Islands Brygge", "fvst:navnelbnr": "129162", "name": "Emmerys", "opening_hours": "Mo-Fr 07:00-18:00; Sa,Su 07:00-17:00", "phone": "+45 51 85 77 01", "ref:DK:cvr": "33388446", "shop": "bakery", "website": "http://emmerys.dk", "wheelchair": "limited"}}, {"type": "node", "id": 891910787, "lat": 55.6668732, "lon": 12.5468939, "tags": {"facebook": "https://m.facebook.com/Bageriet-BR%C3%98D-330089827074995/", "fvst:name": "Bageriet BR\u00d8D Produktion", "fvst:navnelbnr": "927698", "name": "Br\u00f8d", "phone": "+45 2070 0422", "ref:DK:cvr": "34604673", "ref:DK:cvr:pnummer": "1017767425", "shop": "bakery"}}, {"type": "node", "id": 893937150, "lat": 55.6685675, "lon": 12.5508356, "tags": {"check_date": "2023-04-17", "fvst:navnelbnr": "519418", "name": "Bagerdygtigt", "opening_hours": "Mo-Fr 06:00-17:30, Sa-Su 6:30-17:30", "ref:DK:cvr": "25021061", "shop": "bakery", "wheelchair": "no"}}, {"type": "node", "id": 893958239, "lat": 55.6749061, "lon": 12.5645113, "tags": {"branch": "Vesterbrogade", "brand": "Lagkagehuset", "brand:wikidata": "Q12323572", "fvst:navnelbnr": "118672", "name": "Lagkagehuset Vesterbrogade", "ref:DK:cvr": "20213094", "ref:DK:cvr:pnummer": "1015463550", "shop": "bakery", "wheelchair": "yes"}}, {"type": "node", "id": 894351723, "lat": 55.6868763, "lon": 12.5897302, "tags": {"branch": "Store Kongensgade", "fvst:navnelbnr": "517859", "name": "Emmerys", "opening_hours": "07:00-17:00; Sa-Su 07:00-16:00", "phone": "+45 51857609", "ref:DK:cvr": "33388446", "shop": "bakery"}}, {"type": "node", "id": 894422707, "lat": 55.6768888, "lon": 12.570489, "tags": {"branch": "Str\u00f8get", "brand": "Lagkagehuset", "brand:wikidata": "Q12323572", "fvst:name": "Lagkagehuset - 121 Str\u00f8get", "fvst:navnelbnr": "989491", "name": "Lagkagehuset", "opening_hours": "Mo-Su 07:30-17:00", "operator": "Lagkagehuset", "ref:DK:cvr": "20213094", "ref:DK:cvr:pnummer": "1016303085", "shop": "bakery", "wheelchair": "yes"}}, {"type": "node", "id": 898977596, "lat": 55.6785929, "lon": 12.5736372, "tags": {"amenity": "cafe", "email": "Conditori@LaGlace.dk", "fvst:navnelbnr": "112161", "name": "Konditori La Glace", "opening_hours": "Mo-Fr 08:30-18:00; Sa 09:00-18:00; Su 10:00-18:00", "phone": "+45 33 14 46 46", "ref:DK:cvr": "13160880", "ref:DK:cvr:pnummer": "1000511548", "shop": "bakery", "website": "https://laglace.dk/en/", "wheelchair": "limited"}}, {"type": "node", "id": 940424834, "lat": 55.672492, "lon": 12.5915977, "tags": {"brand": "Lagkagehuset", "brand:wikidata": "Q12323572", "fvst:name": "Lagkagehuset Bager/Caf\u00e9", "fvst:navnelbnr": "116169", "name": "Lagkagehuset", "operator": "Lagkagehuset", "ref:DK:cvr": "20213094", "ref:DK:cvr:pnummer": "1015463704", "shop": "bakery", "website": "https://www.lagkagehuset.dk/", "wheelchair": "yes"}}, {"type": "node", "id": 1145314594, "lat": 55.661587, "lon": 12.5120644, "tags": {"check_date": "2023-04-17", "check_date:opening_hours": "2020-11-19", "fvst:navnelbnr": "979069", "name": "All\u00e9 Konditoriet", "opening_hours": "Mo-Fr 05:30-17:00; Sa-Su 05:30-15:00", "ref:DK:cvr": "42040630", "shop": "bakery"}}, {"type": "node", "id": 1200105801, "lat": 55.6874681, "lon": 12.5622798, "tags": {"branch": "N\u00f8rrebrogade 8", "check_date": "2023-04-17", "fvst:navnelbnr": "129150", "name": "Emmerys", "opening_hours": "07:00-18:00; Sa-Su 08:00-17:00", "phone": "+45 51857723", "ref:DK:cvr": "33388446", "shop": "bakery"}}, {"type": "node", "id": 1210423311, "lat": 55.6918598, "lon": 12.5449595, "tags": {"check_date:opening_hours": "2022-02-19", "fvst:navnelbnr": "963506", "name": "Meyers Bageri", "opening_hours": "Mo-Fr 07:00-18:00; PH,Sa,Su 07:00-16:00", "ref:DK:cvr": "41810556", "shop": "bakery", "website": "http://www.clausmeyer.dk/da/meyers_bageri.html", "wheelchair": "no"}}, {"type": "node", "id": 1255722812, "lat": 55.6819534, "lon": 12.5105069, "tags": {"amenity": "fast_food", "fvst:navnelbnr": "110460", "name": "Bodenhoff Bageri", "ref:DK:cvr": "21061883", "ref:DK:cvr:pnummer": "1007509800", "shop": "bakery", "website": "http://www.bodenhoffs.dk/"}}, {"type": "node", "id": 1376993045, "lat": 55.6836054, "lon": 12.5729417, "tags": {"branch": "N\u00f8rreport", "fvst:navnelbnr": "744415", "name": "Taffelbay", "opening_hours": "Mo-Fr 06:00-18:00;Sa 06:00-16:00;Su 06:00-17:00", "phone": "+45 3311 5825", "ref:DK:cvr": "20222271", "shop": "bakery", "website": "http://www.taffelbay.dk/"}}, {"type": "node", "id": 1411071465, "lat": 55.6527826, "lon": 12.5208034, "tags": {"branch": "Trekronergade 147b", "email": "info@emmerys.dk", "fvst:navnelbnr": "130756", "internet_access": "wlan", "name": "Emmerys", "opening_hours": "Mo-Fr 07:00-17:30; Sa-Su 07:30-16:00", "phone": "+45 36130670", "ref:DK:cvr": "33388446", "shop": "bakery", "website": "https://emmerys.dk/butik/emmerys-trekronergade-147b/"}}, {"type": "node", "id": 1440868237, "lat": 55.694177, "lon": 12.549368, "tags": {"branch": "N\u00f8rrebrogade", "brand": "Lagkagehuset", "brand:wikidata": "Q12323572", "fvst:navnelbnr": "128912", "name": "Lagkagehuset", "opening_hours": "Mo-Fr 06:30-19:00; Sa-Su 07:30-18:00", "ref:DK:cvr": "20213094", "shop": "bakery", "website": "https://www.lagkagehuset.dk", "wheelchair": "yes"}}, {"type": "node", "id": 1478786771, "lat": 55.6835556, "lon": 12.5653609, "tags": {"check_date": "2023-04-16", "fvst:navnelbnr": "955498", "name": "Bageren i Nansensgade", "opening_hours": "Mo-Su 06:00-18:00", "ref:DK:cvr": "40604669", "shop": "bakery", "wheelchair": "no"}}, {"type": "node", "id": 1487003381, "lat": 55.6911952, "lon": 12.5756718, "tags": {"branch": "\u00d8ster Farimagsgade", "fvst:navnelbnr": "129155", "name": "Emmerys", "opening_hours": "07:00-18:00; Sa-Su 07:00-17:00", "phone": "+45 36130670", "ref:DK:cvr": "33388446", "shop": "bakery", "website": "https://emmerys.dk/butik/emmerys-oster-farimagsgade-39/"}}, {"type": "node", "id": 1497191501, "lat": 55.683269, "lon": 12.586637, "tags": {"air_conditioning": "yes", "check_date": "2023-06-04", "fvst:navnelbnr": "114361", "internet_access": "wlan", "internet_access:fee": "customers", "name": "Reinh van Hauen", "opening_hours": "Mo-Th 07:00-18:00; Fr 07:00-18:30; Sa-Su 07:00-17:00", "payment:credit_cards": "yes", "payment:debit_cards": "yes", "ref:DK:cvr": "77209913", "shop": "bakery", "source": "Kaart Ground Survey 2017", "toilets": "yes", "website": "http://rvh.dk", "wheelchair": "no"}}, {"type": "node", "id": 1655794772, "lat": 55.6662203, "lon": 12.5145613, "tags": {"branch": "Valby", "brand": "Lagkagehuset", "brand:wikidata": "Q12323572", "changing_table": "yes", "changing_table:fee": "no", "fvst:navnelbnr": "697608", "name": "Lagkagehuset", "opening_hours": "Mo-Fr 06:30-19:00; Sa-Su 06:30-18:00", "phone": "+4573709405", "ref:DK:cvr": "20213094", "shop": "bakery", "toilets:access": "customers", "toilets:hands_drying": "paper towels", "toilets:handwashing:soap": "yes", "toilets:paper_supplied": "yes", "website": "https://lagkagehuset.dk/", "wheelchair": "yes"}}, {"type": "node", "id": 1662006389, "lat": 55.6733283, "lon": 12.5900282, "tags": {"branch": "Torvegade 25", "fvst:navnelbnr": "503674", "name": "Emmerys", "opening_hours": "Mo-Fr 07:00-17:00; Sa-Su 07:00-16:00", "phone": "+45 51857699", "ref:DK:cvr": "33388446", "shop": "bakery", "website": "http://www.emmerys.dk/"}}, {"type": "node", "id": 1778965108, "lat": 55.7205405, "lon": 12.5316827, "tags": {"fvst:name": "Pian dor bageri", "fvst:navnelbnr": "1283773", "name": "Pain D'or Bageri", "phone": "+45 39 31 44 88", "ref:DK:cvr": "42527637", "ref:DK:cvr:pnummer": "1027352975", "shop": "bakery", "website": "https://www.facebook.com/Pain-Dor-Bageri-1068161079870039/"}}, {"type": "node", "id": 1848911337, "lat": 55.6909008, "lon": 12.5759104, "tags": {"alt_name": "H.U.G Bageri", "check_date": "2020-03-17", "fvst:navnelbnr": "928192", "name": "H.U.G.", "ref:DK:cvr": "37895962", "ref:DK:cvr:pnummer": "1021621680", "shop": "bakery", "wheelchair": "no"}}, {"type": "node", "id": 1947545434, "lat": 55.6741704, "lon": 12.5402844, "tags": {"fvst:navnelbnr": "112153", "name": "Engelhardt", "opening_hours": "Mo-Sa 07:00-17:30", "ref:DK:cvr": "11368239", "shop": "bakery", "source": "Local knowledge", "wheelchair": "no"}}, {"type": "node", "id": 2101956073, "lat": 55.6991825, "lon": 12.5804132, "tags": {"check_date:opening_hours": "2023-06-04", "fvst:navnelbnr": "113588", "name": "Det Rene Br\u00f8d", "opening_hours": "Mo-Fr 06:00-18:00, Sa-Su 06:00-17:00", "operator": "Det Rene Br\u00f8d", "payment:cash": "yes", "payment:credit_cards": "yes", "payment:mastercard": "yes", "payment:visa": "yes", "ref:DK:cvr": "26382459", "shop": "bakery", "website": "http://detrenebroed.dk/", "wheelchair": "no"}}, {"type": "node", "id": 2283747705, "lat": 55.7038056, "lon": 12.5881496, "tags": {"alt_name": "Strand Bageriet", "fvst:navnelbnr": "952028", "indoor_seating": "no", "name": "Strandbageri", "opening_hours:signed": "no", "outdoor_seating": "no", "payment:credit_cards": "yes", "payment:debit_cards": "yes", "ref:DK:cvr": "41553820", "ref:DK:cvr:pnummer": "1014835020", "shop": "bakery", "takeaway": "only", "wheelchair": "limited"}}, {"type": "node", "id": 2372983822, "lat": 55.6513321, "lon": 12.5025385, "tags": {"alt_name": "folehave bageriet", "fvst:navnelbnr": "924750", "name": "Bageren i Folehaven", "ref:DK:cvr": "27035353", "ref:DK:cvr:pnummer": "1025292932", "shop": "bakery"}}, {"type": "node", "id": 2554123946, "lat": 55.6967684, "lon": 12.5052395, "tags": {"alt_name": "Bodenhoffs Bageri", "fvst:navnelbnr": "110461", "name": "Bodenhoff", "ref:DK:cvr": "21061883", "ref:DK:cvr:pnummer": "1007509894", "shop": "bakery"}}, {"type": "node", "id": 3081374033, "lat": 55.681152, "lon": 12.583093, "tags": {"atm": "no", "brand": "Lagkagehuset", "brand:wikidata": "Q12323572", "fvst:navnelbnr": "511951", "internet_access": "wlan", "name": "Lagkagehuset", "ref:DK:cvr": "20213094", "shop": "bakery", "source": "survey", "wheelchair": "no"}}, {"type": "node", "id": 3404320871, "lat": 55.6728985, "lon": 12.5498484, "tags": {"branch": "V\u00e6rnedamsvej", "brand": "Lagkagehuset", "brand:wikidata": "Q12323572", "fvst:navnelbnr": "115041", "name": "Lagkagehuset", "opening_hours": "Mo-Fr 06:30-19:00; Sa-Su 06:30-18:00", "phone": "+45 72484797", "ref:DK:cvr": "20213094", "shop": "bakery", "website": "http://www.lagkagehuset.dk/?q=taxonomy/term/20", "wheelchair": "yes"}}, {"type": "node", "id": 3404320872, "lat": 55.6972779, "lon": 12.5942393, "tags": {"alt_name": "Lagkagehuset Bageriudsalg", "branch": "Dampf\u00e6rgevej", "brand": "Lagkagehuset", "brand:wikidata": "Q12323572", "brand:wikipedia": "da:Lagkagehuset", "fvst:navnelbnr": "118532", "internet_access": "wlan", "internet_access:fee": "no", "name": "Lagkagehuset", "opening_hours": "Mo-Fr 06:30-18:00; Sa,Su 07:00-17:00", "operator": "Lagkagehuset", "ref:DK:cvr": "20213094", "ref:DK:cvr:pnummer": "1015626328", "shop": "bakery", "wheelchair": "limited"}}, {"type": "node", "id": 3413059748, "lat": 55.7100553, "lon": 12.5725661, "tags": {"fvst:navnelbnr": "545219", "indoor_seating": "no", "name": "Ehlers Bageri", "opening_hours": "Mo-Fr 07:00-17:00, Sa,Su 07:00-16:00", "outdoor_seating": "no", "payment:credit_cards": "yes", "payment:debit_cards": "yes", "ref:DK:cvr": "35855661", "ref:DK:cvr:pnummer": "1019406578", "shop": "bakery", "takeaway": "only", "wheelchair": "no"}}, {"type": "node", "id": 3414439475, "lat": 55.6714723, "lon": 12.5447355, "tags": {"cuisine": "italian", "fvst:navnelbnr": "113197", "name": "Italiensk Gastronomi og Bageri", "opening_hours": "11:00-22:00; Su 12:00-22:00", "ref:DK:cvr": "19210693", "ref:DK:cvr:pnummer": "1003724675", "shop": "bakery", "takeaway": "only", "wheelchair": "no"}}, {"type": "node", "id": 3659789983, "lat": 55.6630943, "lon": 12.6015028, "tags": {"branch": "Amager", "check_date:opening_hours": "2023-05-14", "fvst:navnelbnr": "963483", "name": "Meyers Bageri", "opening_hours": "Mo-Fr 07:00-18:00; PH,Sa,Su 07:00-16:00", "ref:DK:cvr": "41810556", "shop": "bakery", "website": "https://www.meyersmad.dk/spis-ude/meyers-bageri/meyers-bageri-amagerbrogade/"}}, {"type": "node", "id": 3683386025, "lat": 55.679128, "lon": 12.569142, "tags": {"alt_name": "Sct. Peders Bageri", "fvst:navnelbnr": "111850", "name": "Sankt Peders Bageri", "opening_hours": "Mo-Fr 07:00-17:00; Sa 08:00-14:00", "phone": "+45 33 11 11 29", "ref:DK:cvr": "25645782", "ref:DK:cvr:pnummer": "1007941591", "shop": "bakery", "short_name": "Sct. Peders Bageri", "wheelchair": "no"}}, {"type": "node", "id": 3716477635, "lat": 55.6873869, "lon": 12.584927, "tags": {"diet:gluten_free": "yes", "diet:lactose_free": "yes", "fvst:navnelbnr": "118045", "name": "Det Rene Br\u00f8d", "opening_hours": "Mo-Fr 06:00-18:00; Sa, Su 06:30-17:00", "organic": "only", "ref:DK:cvr": "30962435", "shop": "bakery"}}, {"type": "node", "id": 3730710108, "lat": 55.701326, "lon": 12.5810173, "tags": {"branch": "Nordre Frihavnsgade", "brand": "Lagkagehuset", "brand:wikidata": "Q12323572", "check_date:opening_hours": "2023-03-30", "fvst:navnelbnr": "562548", "indoor_seating": "yes", "name": "Lagkagehuset", "opening_hours": "Mo-Fr 06:30-19:00; Sa,Su 07:00-18:00+", "operator": "Lagkagehuset", "outdoor_seating": "yes", "payment:credit_cards": "yes", "payment:debit_cards": "yes", "ref:DK:cvr": "20213094", "ref:DK:cvr:pnummer": "1020253920", "shop": "bakery", "smoking": "outside", "website": "https://www.lagkagehuset.dk/aabningstider/sjaelland/oesterbro,-nordre-frihavnsgade.aspx", "wheelchair": "yes"}}, {"type": "node", "id": 3977684247, "lat": 55.7274887, "lon": 12.5765048, "tags": {"fvst:name": "Bodenhoffs Bageri c/o SuperBest Rotunden", "fvst:navnelbnr": "124098", "name": "Bodenhoff", "ref:DK:cvr": "21061883", "ref:DK:cvr:pnummer": "1016105003", "shop": "bakery"}}, {"type": "node", "id": 3977684249, "lat": 55.7320366, "lon": 12.5676974, "tags": {"fvst:navnelbnr": "544700", "name": "Emmerys", "opening_hours": "Mo-Fr 07:00-18:00, Sa,Su,PH 08:00-16:00", "ref:DK:cvr": "33388446", "shop": "bakery", "wheelchair": "yes"}}, {"type": "node", "id": 3998884271, "lat": 55.6523714, "lon": 12.6113927, "tags": {"delivery": "yes", "fvst:navnelbnr": "765958", "name": "Eriks Bageri", "opening_hours": "05:00-18:00; Sa 05:00-16:00; Su,PH off", "phone": "+45 32840506", "ref:DK:cvr": "39681633", "ref:DK:cvr:pnummer": "1023747355", "shop": "bakery"}}, {"type": "node", "id": 4018546248, "lat": 55.6793162, "lon": 12.5801939, "tags": {"amenity": "cafe", "fvst:name": "Holms Bager parterre", "fvst:navnelbnr": "109926", "name": "Holms Bager", "name:en": "Holm's Bakery", "opening_hours": "Mo-Su 07:00-20:00", "outdoor_seating": "yes", "phone": "+4533182709", "ref:DK:cvr": "14699082", "ref:DK:cvr:pnummer": "1000787372", "shop": "bakery", "website": "http://holmsbager.dk/", "wheelchair": "yes"}}, {"type": "node", "id": 4136171382, "lat": 55.7029393, "lon": 12.5443468, "tags": {"amenity": "fast_food", "cuisine": "arab", "fvst:navnelbnr": "124151", "name": "Ali Bageri", "ref:DK:cvr": "27603939", "ref:DK:cvr:pnummer": "1016483644", "shop": "bakery", "takeaway": "yes", "website": "http://alibageri.dk/"}}, {"type": "node", "id": 4204761596, "lat": 55.6962427, "lon": 12.5507253, "tags": {"amenity": "cafe", "branch": "Jagtvej", "fvst:navnelbnr": "568891", "name": "Emmerys", "opening_hours": "Sa,Su 07:00-17:00; Mo-Fr 07:00-18:00; PH 07:00-17:00", "operator": "Emmerys", "phone": "+45 3168 5278", "ref:DK:cvr": "33388446", "ref:DK:cvr:pnummer": "1020567593", "shop": "bakery", "toilets:wheelchair": "no", "wheelchair": "no"}}, {"type": "node", "id": 4382317761, "lat": 55.6692288, "lon": 12.4926767, "tags": {"branch": "Valby", "fvst:navnelbnr": "645630", "name": "Bagerdygtigt", "opening_hours": "06:00-17:30; Sa-Su 06:00-15:30", "ref:DK:cvr": "37577170", "ref:DK:cvr:pnummer": "1021296321", "shop": "bakery", "website": "https://www.bagerdygtigt.dk/"}}, {"type": "node", "id": 4388392029, "lat": 55.6711397, "lon": 12.5444374, "tags": {"fvst:navnelbnr": "546192", "name": "Gr\u00e6sk Smag", "ref:DK:cvr": "35479457", "ref:DK:cvr:pnummer": "1018773593", "shop": "bakery", "wheelchair": "no"}}, {"type": "node", "id": 4425398790, "lat": 55.6891615, "lon": 12.5426883, "tags": {"fvst:navnelbnr": "736462", "name": "Bagt", "opening_hours": "Mo-Fr 07:00-18:00; Sa,Su 07:00-17:00", "ref:DK:cvr": "34902143", "ref:DK:cvr:pnummer": "1023433253", "shop": "bakery", "wheelchair": "no"}}, {"type": "node", "id": 4437752889, "lat": 55.6613401, "lon": 12.5601624, "tags": {"alt_name": "Quick Food", "fvst:navnelbnr": "111619", "level": "0", "name": "F\u00f8tex Bageriudsalg", "ref:DK:cvr": "35954716", "ref:DK:cvr:pnummer": "1007949592", "shop": "bakery"}}, {"type": "node", "id": 4464510626, "lat": 55.6761189, "lon": 12.5749863, "tags": {"branch": "Frederiksholms Kanal", "check_date": "2023-04-23", "fvst:navnelbnr": "507814", "name": "Emmerys", "opening_hours": "07:00-17:00; Sa-Su 07:00-16:00", "ref:DK:cvr": "33388446", "shop": "bakery", "website": "https://emmerys.dk/butik/emmerys-frederiksholms-kanal-1/", "wheelchair": "no"}}, {"type": "node", "id": 4743856024, "lat": 55.6882624, "lon": 12.563579, "tags": {"branch": "Sortedam", "brand": "Lagkagehuset", "brand:wikidata": "Q12323572", "fvst:navnelbnr": "552133", "internet_access": "wlan", "name": "Lagkagehuset", "ref:DK:cvr": "20213094", "shop": "bakery"}}, {"type": "node", "id": 4823275366, "lat": 55.6823118, "lon": 12.5766249, "tags": {"fvst:navnelbnr": "653827", "indoor_seating": "yes", "name": "Emmerys", "opening_hours": "Mo-Fr 07:00-17:00; Sa 07:00-16:00; Su 08:00-15:00", "outdoor_seating": "no", "ref:DK:cvr": "33388446", "shop": "bakery", "wheelchair": "yes"}}, {"type": "node", "id": 5147561321, "lat": 55.701423, "lon": 12.5771935, "tags": {"branch": "\u00d8sterbrogade 51", "fvst:navnelbnr": "129154", "indoor_seating": "yes", "name": "Emmerys", "opening_hours": "Mo-Fr 07:00-18:00; Sa,Su 07:00-17:00", "outdoor_seating": "yes", "payment:credit_cards": "yes", "payment:debit_cards": "yes", "phone": "+45 51856996", "ref:DK:cvr": "33388446", "shop": "bakery", "smoking": "outside", "wheelchair": "no"}}, {"type": "node", "id": 5251686148, "lat": 55.7061592, "lon": 12.5817961, "tags": {"alt_name": "juno the bakery", "check_date:opening_hours": "2022-05-19", "currency:DKK": "yes", "fvst:navnelbnr": "949970", "indoor_seating": "no", "name": "Juno", "opening_hours": "We-Sa 07:30-18:00; Su 08:00-15:00; Mo-Tu off", "outdoor_seating": "yes", "payment:apple_pay": "yes", "payment:cash": "yes", "payment:contactless": "yes", "payment:credit_cards": "yes", "payment:debit_cards": "yes", "payment:google_pay": "yes", "payment:mastercard": "yes", "payment:visa": "yes", "ref:DK:cvr": "38691236", "ref:DK:cvr:pnummer": "1022500968", "shop": "bakery", "smoking": "no", "stroller": "yes", "wheelchair": "no"}}, {"type": "node", "id": 5418412773, "lat": 55.6903643, "lon": 12.5550855, "tags": {"amenity": "cafe", "branch": "N\u00f8rrebro", "check_date": "2023-05-15", "cuisine": "coffee_shop;bakery", "fvst:name": "Andersen & Maillard", "fvst:navnelbnr": "935503", "indoor_seating": "yes", "name": "Andersen og Maillard", "opening_hours": "Mo-Fr 07:00-18:00; PH,Sa,Su 08:00-18:00", "outdoor_seating": "yes", "payment:credit_cards": "yes", "payment:debit_cards": "yes", "ref:DK:cvr": "41211342", "ref:DK:cvr:pnummer": "1025622967", "shop": "bakery", "takeaway": "yes"}}, {"type": "node", "id": 5435012221, "lat": 55.675459, "lon": 12.5629616, "tags": {"fvst:navnelbnr": "520232", "name": "Emmerys", "ref:DK:cvr": "33388446", "shop": "bakery", "wheelchair": "yes"}}, {"type": "node", "id": 5792643663, "lat": 55.6900933, "lon": 12.6130934, "tags": {"amenity": "cafe", "cuisine": "bread;coffee", "fvst:navnelbnr": "738093", "name": "Lille Bakery", "opening_hours": "We-Su 08:00-17:00", "ref:DK:cvr": "39363666", "ref:DK:cvr:pnummer": "1023481754", "shop": "bakery", "toilets": "yes", "website": "https://lillebakery.com/"}}, {"type": "node", "id": 5809585768, "lat": 55.6479521, "lon": 12.553442, "tags": {"fvst:navnelbnr": "758070", "name": "Mille's Minis", "opening_hours": "10:00-18:00; Sa-Su 10:00-17:00; Mo off", "phone": "+45 93831793", "ref:DK:cvr": "39477076", "shop": "bakery", "website": "http://millesminis.dk/"}}, {"type": "node", "id": 5916960411, "lat": 55.710241, "lon": 12.53767, "tags": {"fvst:navnelbnr": "635886", "name": "Taffelbay", "opening_hours": "Mo-Fr 06:00-17:00; Sa-Su 06:30-16:00", "phone": "+45 35 81 66 50", "ref:DK:cvr": "20222271", "shop": "bakery", "website": "http://www.taffelbay.dk/butikker.asp?id=4", "wheelchair": "no"}}, {"type": "node", "id": 5961583783, "lat": 55.6753764, "lon": 12.5455019, "tags": {"check_date": "2023-05-13", "fvst:navnelbnr": "758250", "indoor_seating": "no", "name": "Hart Bageri", "opening_hours": "Mo-Fr 07:30-18:00; Sa-Su 08:00-17:00", "outdoor_seating": "yes", "payment:apple_pay": "yes", "payment:cash": "yes", "payment:contactless": "yes", "payment:credit_cards": "yes", "payment:dankort": "yes", "payment:debit_cards": "yes", "payment:google_pay": "yes", "payment:mastercard": "yes", "ref:DK:cvr": "39311895", "ref:DK:cvr:pnummer": "1023322230", "shop": "bakery", "takeaway": "yes", "website": "https://hartbageri.com/", "wheelchair": "no"}}, {"type": "node", "id": 6033572388, "lat": 55.6835193, "lon": 12.5714447, "tags": {"fvst:navnelbnr": "751059", "indoor_seating": "yes", "name": "Emmery's", "opening_hours": "Mo-Fr 06:00-20:00; Sa,Su 07:00-20:00", "outdoor_seating": "no", "ref:DK:cvr": "33388446", "shop": "bakery", "wheelchair": "yes"}}, {"type": "node", "id": 6070474661, "lat": 55.6989693, "lon": 12.5414196, "tags": {"amenity": "cafe", "cuisine": "arab", "fvst:navnelbnr": "741085", "name": "Ali Bageri", "opening_hours": "09:00-18:00", "phone": "+45 35353531", "ref:DK:cvr": "27603939", "ref:DK:cvr:pnummer": "1023472267", "shop": "bakery", "website": "https://alibageri.dk/noerrebrogade/", "wheelchair": "yes"}}, {"type": "node", "id": 6372248726, "lat": 55.6723494, "lon": 12.5639761, "tags": {"branch": "Hovedg\u00e5rden", "brand": "Lagkagehuset", "brand:wikidata": "Q12323572", "fvst:navnelbnr": "774107", "name": "Lagkagehuset", "payment:credit_cards": "yes", "ref:DK:cvr": "20213094", "ref:DK:cvr:pnummer": "1017420824", "shop": "bakery"}}, {"type": "node", "id": 6551042413, "lat": 55.6565579, "lon": 12.6037324, "tags": {"branch": "Englandsvej", "fvst:navnelbnr": "113902", "name": "Kvickly bager", "opening_hours": "Mo-Su 07:00-20:00", "phone": "+45 32860111", "ref:DK:cvr": "26259495", "shop": "bakery"}}, {"type": "node", "id": 6618633401, "lat": 55.6640624, "lon": 12.5733571, "tags": {"brand": "Lagkagehuset", "brand:wikidata": "Q12323572", "brand:wikipedia": "da:Lagkagehuset", "fvst:navnelbnr": "738808", "name": "Lagkagehuset", "opening_hours": "Mo-Fr 06:30-19:00; Sa-Su 06:30-18:00", "ref:DK:cvr": "20213094", "shop": "bakery"}}, {"type": "node", "id": 6766572590, "lat": 55.6876728, "lon": 12.5920916, "tags": {"amenity": "cafe", "branch": "Gr\u00f8nningen", "brand": "Lagkagehuset", "brand:wikidata": "Q12323572", "brand:wikipedia": "da:Lagkagehuset", "fvst:navnelbnr": "718693", "name": "Lagkagehuset", "ref:DK:cvr": "20213094", "ref:DK:cvr:pnummer": "1022940062", "shop": "bakery"}}, {"type": "node", "id": 6786110529, "lat": 55.7129943, "lon": 12.5772237, "tags": {"branch": "\u00d8sterbrogade", "fvst:navnelbnr": "129153", "indoor_seating": "yes", "name": "Emmerys", "opening_hours": "Mo-Fr 06:30-18:00; Su 06:30-16:00; Sa 06:30-17:00", "outdoor_seating": "yes", "payment:credit_cards": "yes", "payment:debit_cards": "yes", "phone": "+4551857724", "ref:DK:cvr": "33388446", "shop": "bakery", "smoking": "outside", "website": "https://emmerys.dk/butik/emmerys-osterbrogade-139/", "wheelchair": "no"}}, {"type": "node", "id": 6795119665, "lat": 55.7058491, "lon": 12.5761557, "tags": {"branch": "\u00d8sterf\u00e6lled Torv", "brand": "Lagkagehuset", "brand:wikidata": "Q12323572", "brand:wikipedia": "da:Lagkagehuset", "check_date": "2023-05-06", "fvst:name": "Lagkagehuset SuperBest \u00d8sterbro", "fvst:navnelbnr": "132055", "indoor_seating": "no", "name": "Lagkagehuset \u00d8sterf\u00e6lled Torv", "opening_hours": "Mo-Fr 07:30-19:00; Sa,Su 07:30-18:00", "operator": "Lagkagehuset", "outdoor_seating": "no", "ref:DK:cvr": "20213094", "ref:DK:cvr:pnummer": "1017146218", "shop": "bakery", "takeaway": "only", "wheelchair": "yes"}}, {"type": "node", "id": 6854983377, "lat": 55.6780628, "lon": 12.5339555, "tags": {"fvst:navnelbnr": "112875", "name": "Reinh van Hauen", "opening_hours": "Mo-Th 06:30-18:00; Fr 06:30-18:30; Sa,Su 06:30-17:00", "ref:DK:cvr": "77209913", "shop": "bakery", "website": "http://rvh.dk/"}}, {"type": "node", "id": 6959994876, "lat": 55.6813421, "lon": 12.5338198, "tags": {"branch": "Frederiksberg Centeret", "fvst:navnelbnr": "541663", "level": "0", "name": "Holm's Bager Frederiksberg Centeret", "ref:DK:cvr": "14699082", "shop": "bakery"}}, {"type": "node", "id": 6961350292, "lat": 55.6864514, "lon": 12.5328276, "tags": {"branch": "Frederiksberg", "fvst:navnelbnr": "737136", "name": "Det rene br\u00f8d", "ref:DK:cvr": "26107636", "ref:DK:cvr:pnummer": "1008520816", "shop": "bakery"}}, {"type": "node", "id": 7297409136, "lat": 55.7019999, "lon": 12.5338535, "tags": {"fvst:name": "Favori Baklavaci", "fvst:navnelbnr": "912625", "name": "Favori Baklavaci", "opening_hours": "Mo-Fr 08:00-20:00; Sa,Su 10:00-20:00", "ref:DK:cvr": "39775298", "ref:DK:cvr:pnummer": "1024941813", "shop": "bakery", "wheelchair": "limited"}}, {"type": "node", "id": 7331729108, "lat": 55.663896, "lon": 12.5364106, "tags": {"branch": "Humletorvet", "brand": "Lagkagehuset", "brand:wikidata": "Q12323572", "fvst:navnelbnr": "669682", "name": "Lagkagehuset", "opening_hours": "Mo-Fr 07:00-18:00; Sa,Su 07:30-17:00", "ref:DK:cvr": "20213094", "ref:DK:cvr:pnummer": "1021948167", "shop": "bakery"}}, {"type": "node", "id": 7352697383, "lat": 55.7072071, "lon": 12.596715, "tags": {"branch": "Nordhavn", "fvst:navnelbnr": "1240533", "indoor_seating": "yes", "name": "Andersen & Maillard", "opening_hours": "Mo-Su 07:00-18:00", "outdoor_seating": "yes", "phone": "+4542682150", "ref:DK:cvr": "41211342", "ref:DK:cvr:pnummer": "1025666190", "shop": "bakery", "smoking": "outside", "website": "https://www.andersenmaillard.dk/", "wheelchair": "yes"}}, {"type": "node", "id": 7438788338, "lat": 55.6711599, "lon": 12.531437, "tags": {"fvst:name": "Petitfour by Susanne Gerv\u00f8", "fvst:navnelbnr": "802957", "name": "Petit Four & Nougats", "phone": "+45 6057 3015", "ref:DK:cvr": "25531620", "ref:DK:cvr:pnummer": "1024550717", "shop": "bakery", "website": "https://www.petitfour.dk/"}}, {"type": "node", "id": 7577888226, "lat": 55.6809791, "lon": 12.5338574, "tags": {"fvst:navnelbnr": "714692", "name": "Reinh. van Hauen", "opening_hours": "Mo-Th 07:00-19:00; Fr 07:00-20:00; Sa,Su 07:00-18:00", "phone": "+45 3880 0800", "ref:DK:cvr": "77209913", "shop": "bakery", "website": "http://rvh.dk/"}}, {"type": "node", "id": 7578054717, "lat": 55.6847374, "lon": 12.5382781, "tags": {"brand": "Lagkagehuset", "brand:wikidata": "Q12323572", "fvst:navnelbnr": "568452", "name": "Lagkagehuset", "opening_hours": "Mo-Su 07:00-17:00", "ref:DK:cvr": "20213094", "shop": "bakery", "wheelchair": "yes"}}, {"type": "node", "id": 7670835349, "lat": 55.6435799, "lon": 12.591285, "tags": {"fvst:navnelbnr": "741971", "name": "Kringlevrideren", "opening_hours": "Mo-Su 05:30-16:00", "payment:credit_cards": "yes", "payment:debit_cards": "yes", "ref:DK:cvr": "34374082", "shop": "bakery"}}, {"type": "node", "id": 7689101820, "lat": 55.6813959, "lon": 12.5894823, "tags": {"fvst:navnelbnr": "129212", "name": "Emmerys", "opening_hours": "Mo-Fr 07:00-18:00; Sa,Su 07:00-17:00", "phone": "+45 3613 0670", "ref:DK:cvr": "33388446", "shop": "bakery", "website": "https://emmerys.dk/"}}, {"type": "node", "id": 7711964793, "lat": 55.661302, "lon": 12.60365, "tags": {"fvst:navnelbnr": "936635", "indoor_seating": "yes", "name": "Bagerdygtigt Amager", "opening_hours": "06:00-17:30;Sa-Su 07:00-16:30", "outdoor_seating": "yes", "ref:DK:cvr": "37577170", "ref:DK:cvr:pnummer": "1025678903", "shop": "bakery", "website": "https://www.bagerdygtigt.dk/"}}, {"type": "node", "id": 8090884432, "lat": 55.6976271, "lon": 12.5851983, "tags": {"fvst:navnelbnr": "962867", "indoor_seating": "yes", "name": "Meyers Bageri", "opening_hours": "Mo-Fr 07:00-18:00; Sa-Su 07:00-16:00", "outdoor_seating": "no", "payment:credit_cards": "yes", "payment:debit_cards": "yes", "phone": "+4522723636", "ref:DK:cvr": "41810556", "shop": "bakery", "smoking": "no", "website": "https://meyers.dk", "wheelchair": "no"}}, {"type": "node", "id": 8138019653, "lat": 55.685976, "lon": 12.537015, "tags": {"fvst:navnelbnr": "959693", "name": "Debbielicious", "ref:DK:cvr": "40200053", "ref:DK:cvr:pnummer": "1026064259", "shop": "bakery", "website": "https://www.debbielicious.dk/"}}, {"type": "node", "id": 8223382244, "lat": 55.6292395, "lon": 12.5802557, "tags": {"amenity": "cafe", "branch": "\u00d8restad", "brand": "Lagkagehuset", "brand:wikidata": "Q12323572", "brand:wikipedia": "da:Lagkagehuset", "fvst:navnelbnr": "923857", "name": "Lagkagehuset", "opening_hours": "Mo-Fr 07:00-18:00; Sa,Su 07:00-17:00", "operator": "Lagkagehuset", "ref:DK:cvr": "20213094", "ref:DK:cvr:pnummer": "1025129802", "shop": "bakery"}}, {"type": "node", "id": 8342655388, "lat": 55.6786214, "lon": 12.5335835, "tags": {"brand": "Lagkagehuset", "brand:wikidata": "Q12323572", "fvst:navnelbnr": "115040", "name": "Lagkagehuset", "ref:DK:cvr": "20213094", "shop": "bakery"}}, {"type": "node", "id": 8595397806, "lat": 55.6736346, "lon": 12.5991329, "tags": {"fvst:navnelbnr": "114336", "name": "Sunshine Bakery Christiania", "ref:DK:cvr": "33644388", "ref:DK:cvr:pnummer": "1016843861", "shop": "bakery"}}, {"type": "node", "id": 8695324520, "lat": 55.7000979, "lon": 12.5782091, "tags": {"fvst:navnelbnr": "114628", "indoor_seating": "yes", "name": "Reinh. van Hauen", "opening_hours": "Sa,Su 07:00-16:30; Mo-Fr 07:00-18:00", "operator": "Reinh. van Hauen", "outdoor_seating": "yes", "payment:credit_cards": "yes", "payment:debit_cards": "yes", "ref:DK:cvr": "77209913", "ref:DK:cvr:pnummer": "1018226290", "shop": "bakery", "smoking": "no", "wheelchair": "no"}}, {"type": "node", "id": 8695324527, "lat": 55.7099802, "lon": 12.563899, "tags": {"fvst:name": "Bisgaard Bageri Hiller\u00f8d Bager", "fvst:navnelbnr": "548972", "level": "0", "name": "Bisgaard", "opening_hours": "Mo-Fr 07:00-19:00; Sa,Su 07:00-18:00", "ref:DK:cvr": "35821368", "ref:DK:cvr:pnummer": "1019562596", "shop": "bakery", "website": "http://www.bisgaard-bageri.dk/", "wheelchair": "yes"}}, {"type": "node", "id": 8695324535, "lat": 55.7075765, "lon": 12.5614628, "tags": {"fvst:navnelbnr": "119727", "name": "f\u00f8tex Bagerudsalg", "operator": "f\u00f8tex", "ref:DK:cvr": "35954716", "ref:DK:cvr:pnummer": "1013466951", "shop": "bakery"}}, {"type": "node", "id": 8695324538, "lat": 55.7012646, "lon": 12.538725, "tags": {"fvst:navnelbnr": "113815", "name": "f\u00f8tex Bagerudsalg", "operator": "f\u00f8tex", "ref:DK:cvr": "35954716", "ref:DK:cvr:pnummer": "1003224357", "shop": "bakery"}}, {"type": "node", "id": 8695324545, "lat": 55.6989093, "lon": 12.5537428, "tags": {"fvst:navnelbnr": "576897", "indoor_seating": "no", "name": "f\u00f8tex food Bagerudsalg", "operator": "f\u00f8tex", "outdoor_seating": "no", "ref:DK:cvr": "35954716", "ref:DK:cvr:pnummer": "1003017862", "shop": "bakery", "takeaway": "only"}}, {"type": "node", "id": 8710151410, "lat": 55.6996131, "lon": 12.4687409, "tags": {"fvst:navnelbnr": "754624", "name": "Cheesecakery", "phone": "+45 42428215", "ref:DK:cvr": "30371933", "ref:DK:cvr:pnummer": "1024795108", "shop": "bakery", "website": "https://cheesecakery.dk/"}}, {"type": "node", "id": 8756871295, "lat": 55.695752, "lon": 12.45938, "tags": {"fvst:name": "Munke konditri", "fvst:navnelbnr": "671751", "name": "Munkekonditori", "ref:DK:cvr": "27314147", "ref:DK:cvr:pnummer": "1021812893", "shop": "bakery"}}, {"type": "node", "id": 8756871297, "lat": 55.7105085, "lon": 12.4780696, "tags": {"branch": "Husum", "fvst:navnelbnr": "112338", "name": "f\u00f8tex Bager", "operator": "f\u00f8tex", "ref:DK:cvr": "35954716", "ref:DK:cvr:pnummer": "1003224369", "shop": "bakery"}}, {"type": "node", "id": 8756871313, "lat": 55.6990003, "lon": 12.577589, "tags": {"amenity": "fast_food", "branch": "Trianglen", "cuisine": "pizza", "fvst:navnelbnr": "1259993", "name": "OTTO", "opening_hours": "Su-We 11:00-21:00; Th-Sa 11:00-22:00", "ref:DK:cvr": "38578723", "ref:DK:cvr:pnummer": "1028737412", "shop": "bakery"}}, {"type": "node", "id": 8774074059, "lat": 55.6850709, "lon": 12.540248, "tags": {"branch": "Rolighedsvej", "fvst:navnelbnr": "661897", "name": "f\u00f8tex food Bagerudsalg", "operator": "f\u00f8tex", "ref:DK:cvr": "35954716", "ref:DK:cvr:pnummer": "1021247924", "shop": "bakery"}}, {"type": "node", "id": 8788576780, "lat": 55.7029074, "lon": 12.5843388, "tags": {"branch": "Nordre Frihavnsgade", "fvst:navnelbnr": "512016", "indoor_seating": "yes", "name": "Emmerys", "opening_hours": "Mo-Fr 07:00-18:00; Sa,Su 07:00-17:00", "outdoor_seating": "yes", "payment:credit_cards": "yes", "payment:debit_cards": "yes", "ref:DK:cvr": "33388446", "ref:DK:cvr:pnummer": "1017776165", "shop": "bakery", "smoking": "outside", "wheelchair": "yes"}}, {"type": "node", "id": 8790043205, "lat": 55.6860621, "lon": 12.5839283, "tags": {"fvst:navnelbnr": "659007", "name": "f\u00f8tex food Bagerudsalg", "ref:DK:cvr": "35954716", "ref:DK:cvr:pnummer": "1021247800", "shop": "bakery"}}, {"type": "node", "id": 8790043211, "lat": 55.6862816, "lon": 12.5876128, "tags": {"fvst:navnelbnr": "940993", "name": "Bagt", "opening_hours": "07:00-17:30", "phone": "+45 24761303", "ref:DK:cvr": "34902143", "ref:DK:cvr:pnummer": "1025771520", "shop": "bakery"}}, {"type": "node", "id": 8790043212, "lat": 55.6873914, "lon": 12.5926222, "tags": {"branch": "Bredgade", "check_date": "2023-06-30", "fvst:navnelbnr": "568522", "name": "f\u00f8tex food Bagerudsalg", "operator": "f\u00f8tex", "ref:DK:cvr": "35954716", "ref:DK:cvr:pnummer": "1020445439", "shop": "bakery"}}, {"type": "node", "id": 8807362395, "lat": 55.6940732, "lon": 12.5092546, "tags": {"fvst:name": "Mimoz", "fvst:navnelbnr": "672757", "name": "Mimi\u2019s Cake House", "ref:DK:cvr": "38308017", "ref:DK:cvr:pnummer": "1022065587", "shop": "bakery", "website": "https://mimiscakehouse.dk/"}}, {"type": "node", "id": 8848947265, "lat": 55.6783613, "lon": 12.554939, "tags": {"check_date": "2022-01-05", "fvst:navnelbnr": "111263", "name": "Bagerhj\u00f8rnet", "ref:DK:cvr": "13945306", "ref:DK:cvr:pnummer": "1003479988", "shop": "bakery"}}, {"type": "node", "id": 8849254692, "lat": 55.6899708, "lon": 12.5603242, "tags": {"fvst:navnelbnr": "979195", "name": "Bageriet benji", "opening_hours": "07:00-18:00; Su 07:00-16:00; Mo-We off", "ref:DK:cvr": "41898623", "shop": "bakery"}}, {"type": "node", "id": 8879906136, "lat": 55.6877901, "lon": 12.4908152, "tags": {"brand": "Lagkagehuset", "brand:wikidata": "Q12323572", "email": "vanloesekronen@lagkagehuset.dk", "fvst:navnelbnr": "717926", "name": "Lagkagehuset", "opening_hours": "Mo-Fr 06:30-19:00; Sa,Su 07:00-18:00", "opening_hours:covid19": "same", "phone": "+45 7070 5024", "ref:DK:cvr": "20213094", "ref:DK:cvr:pnummer": "1022913316", "shop": "bakery", "website": "https://lagkagehuset.dk"}}, {"type": "node", "id": 8894831643, "lat": 55.7042538, "lon": 12.4992329, "tags": {"branch": "Br\u00f8nsh\u00f8j", "brand": "Lagkagehuset", "brand:wikidata": "Q12323572", "fvst:navnelbnr": "959753", "name": "Lagkagehuset", "operator": "Lagkagehuset", "ref:DK:cvr": "20213094", "ref:DK:cvr:pnummer": "1026277368", "shop": "bakery"}}, {"type": "node", "id": 8894831649, "lat": 55.7076655, "lon": 12.5933817, "tags": {"branch": "Meny Nordhavn", "brand": "Lagkagehuset", "brand:wikidata": "Q12323572", "fvst:navnelbnr": "768751", "indoor_seating": "no", "name": "Lagkagehuset Meny Nordhavn", "opening_hours": "09:00-20:00; Sa-Su 09:00-19:00", "opening_hours:signed": "no", "operator": "Lagkagehuset", "outdoor_seating": "no", "ref:DK:cvr": "20213094", "ref:DK:cvr:pnummer": "1023985477", "shop": "bakery", "takeaway": "only", "wheelchair": "yes"}}, {"type": "node", "id": 8895018268, "lat": 55.666883, "lon": 12.486541, "tags": {"fvst:navnelbnr": "909167", "name": "Vanilje", "ref:DK:cvr": "28362676", "ref:DK:cvr:pnummer": "1023233327", "shop": "bakery"}}, {"type": "node", "id": 8895018270, "lat": 55.6610654, "lon": 12.4831777, "tags": {"fvst:navnelbnr": "1285930", "name": "Br\u00f8dhj\u00f8rnet", "ref:DK:cvr": "37848719", "ref:DK:cvr:pnummer": "1021564962", "shop": "bakery", "website": "https://www.xn--brdhjrnet-m8ad.dk/"}}, {"type": "node", "id": 8911082006, "lat": 55.693184, "lon": 12.5522748, "tags": {"fvst:navnelbnr": "989070", "name": "Rondo", "opening_hours": "Tu-Fr 07:30-17:00; Sa-Su 08:00-16:00", "ref:DK:cvr": "42027995", "ref:DK:cvr:pnummer": "1026689364", "shop": "bakery"}}, {"type": "node", "id": 8996126617, "lat": 55.6819489, "lon": 12.585891, "tags": {"alt_name": "BUKA", "fvst:navnelbnr": "924531", "name": "Buka Bakery", "ref:DK:cvr": "40383646", "ref:DK:cvr:pnummer": "1024549603", "shop": "bakery"}}, {"type": "node", "id": 9001904348, "lat": 55.6666605, "lon": 12.5389595, "tags": {"fvst:navnelbnr": "993904", "indoor_seating": "yes", "name": "Cadence", "opening_hours": "Mo-Su 08:00-17:00", "outdoor_seating": "yes", "phone": "+45 44 14 17 99", "ref:DK:cvr": "41731559", "ref:DK:cvr:pnummer": "1026327314", "shop": "bakery", "smoking": "outside", "website": "https://www.cadencecph.dk/", "wheelchair": "yes"}}, {"type": "node", "id": 9032362896, "lat": 55.618459, "lon": 12.569357, "tags": {"amenity": "cafe", "fvst:navnelbnr": "1217983", "name": "La Boulangerie", "phone": "+45 60903978", "ref:DK:cvr": "36896043", "ref:DK:cvr:pnummer": "1020408134", "shop": "bakery"}}, {"type": "node", "id": 9041113433, "lat": 55.6309198, "lon": 12.5770088, "tags": {"branch": "Fields", "fvst:navnelbnr": "113181", "level": "0", "name": "Bilka Bagerudsalg", "opening_hours": "Mo-Su 07:00-22:00", "operator": "Bilka", "ref:DK:cvr": "35954716", "ref:DK:cvr:pnummer": "1010166914", "shop": "bakery"}}, {"type": "node", "id": 9041113434, "lat": 55.6309112, "lon": 12.5772738, "tags": {"branch": "Fields", "fvst:navnelbnr": "114578", "level": "0", "name": "Bilka Bager", "opening_hours": "Mo-Su 07:00-22:00", "operator": "Bilka", "ref:DK:cvr": "35954716", "ref:DK:cvr:pnummer": "1010166914", "shop": "bakery"}}, {"type": "node", "id": 9044360296, "lat": 55.6339006, "lon": 12.6099375, "tags": {"fvst:navnelbnr": "714565", "name": "Bodenhoffs Bageri T\u00e5rnbyvej", "ref:DK:cvr": "21061883", "ref:DK:cvr:pnummer": "1022625663", "shop": "bakery"}}, {"type": "node", "id": 9053748677, "lat": 55.6441617, "lon": 12.6289259, "tags": {"fvst:name": "KonditorBager Kastrup A.S.C.Aps", "fvst:navnelbnr": "763375", "name": "KonditorBager", "old_name": "Guldbageren", "operator": "KonditorBager", "ref:DK:cvr": "39216213", "ref:DK:cvr:pnummer": "1023212117", "shop": "bakery"}}, {"type": "node", "id": 9053748679, "lat": 55.6411221, "lon": 12.6159472, "tags": {"fvst:navnelbnr": "115306", "name": "f\u00f8tex Bagerudsalg", "opening_hours": "Mo-Su 07:00-21:00", "operator": "f\u00f8tex", "ref:DK:cvr": "35954716", "ref:DK:cvr:pnummer": "1010200926", "shop": "bakery"}}, {"type": "node", "id": 9054733242, "lat": 55.6672313, "lon": 12.5784845, "tags": {"fvst:navnelbnr": "712267", "name": "Andersen Bakery", "opening_hours": "Mo-Fr 06:30-19:00; Sa,Su 06:30-18:00", "phone": "+45 33 75 07 35", "ref:DK:cvr": "38748068", "ref:DK:cvr:pnummer": "1022582875", "shop": "bakery", "website": "https://andersen-bakery-eu.dk"}}, {"type": "node", "id": 9055748442, "lat": 55.6502334, "lon": 12.5361346, "tags": {"branch": "Sydhavnen", "fvst:navnelbnr": "1245966", "indoor_seating": "yes", "name": "Bagerdygtigt Sydhavnen", "opening_hours": "06:00-17:30; Sa-Su 06:00-16:30", "outdoor_seating": "no", "ref:DK:cvr": "43227432", "ref:DK:cvr:pnummer": "1028209009", "shop": "bakery", "smoking": "no", "website": "https://www.bagerdygtigt.dk/"}}, {"type": "node", "id": 9060514081, "lat": 55.6569392, "lon": 12.591952, "tags": {"fvst:navnelbnr": "979428", "name": "f\u00f8tex Bagerudsalg", "operator": "f\u00f8tex", "payment:credit_cards": "yes", "payment:debit_cards": "yes", "ref:DK:cvr": "35954716", "ref:DK:cvr:pnummer": "1026279379", "shop": "bakery"}}, {"type": "node", "id": 9060514089, "lat": 55.6601586, "lon": 12.6329947, "tags": {"branch": "Amager Strandvej", "brand": "Lagkagehuset", "brand:wikidata": "Q12323572", "check_date": "2023-04-10", "fvst:navnelbnr": "722164", "name": "Lagkagehuset", "opening_hours": "07:00-18:00", "operator": "Lagkagehuset", "payment:mastercard": "yes", "payment:visa": "yes", "phone": "+45 70 70 50 25", "ref:DK:cvr": "20213094", "ref:DK:cvr:pnummer": "1023080458", "shop": "bakery"}}, {"type": "node", "id": 9063246446, "lat": 55.656127, "lon": 12.609256, "tags": {"brand": "Lagkagehuset", "brand:wikidata": "Q12323572", "fvst:navnelbnr": "572788", "name": "Lagkagehuset", "opening_hours": "06:30-18:00; Sa 06:30-17:00; Su 06:30-17:00", "operator": "Lagkagehuset", "phone": "+45 79304341", "ref:DK:cvr": "20213094", "ref:DK:cvr:pnummer": "1020684565", "shop": "bakery"}}, {"type": "node", "id": 9063246459, "lat": 55.6566187, "lon": 12.537889, "tags": {"fvst:navnelbnr": "513605", "name": "Firdaws", "ref:DK:cvr": "34583730", "ref:DK:cvr:pnummer": "1017699098", "shop": "bakery"}}, {"type": "node", "id": 9067184654, "lat": 55.6585055, "lon": 12.6346891, "tags": {"check_date": "2023-04-10", "fvst:name": "070", "fvst:navnelbnr": "709117", "name": "Svaneke Br\u00f8d", "opening_hours": "Mo-We off; Th,Sa-Su 07:00-16:00; Fr 07:00-17:00", "ref:DK:cvr": "38432559", "ref:DK:cvr:pnummer": "1022207160", "shop": "bakery"}}, {"type": "node", "id": 9067467698, "lat": 55.661039, "lon": 12.6194994, "tags": {"fvst:navnelbnr": "504402", "name": "Dianas Bageri Celinaps", "ref:DK:cvr": "34055742", "ref:DK:cvr:pnummer": "1017276375", "shop": "bakery"}}, {"type": "node", "id": 9067467699, "lat": 55.6628858, "lon": 12.6057261, "tags": {"branch": "Amagercentret", "fvst:navnelbnr": "115365", "name": "f\u00f8tex Bagerudsalg", "operator": "f\u00f8tex", "ref:DK:cvr": "35954716", "ref:DK:cvr:pnummer": "1003151755", "shop": "bakery"}}, {"type": "node", "id": 9067487932, "lat": 55.666416, "lon": 12.6125431, "tags": {"fvst:navnelbnr": "920659", "name": "Dansk br\u00f8d", "ref:DK:cvr": "39935171", "ref:DK:cvr:pnummer": "1024034891", "shop": "bakery"}}, {"type": "node", "id": 9068656653, "lat": 55.659371, "lon": 12.514673, "tags": {"fvst:navnelbnr": "913334", "name": "o-kage", "ref:DK:cvr": "38207024", "ref:DK:cvr:pnummer": "1021953136", "shop": "bakery", "website": "https://www.okage.dk/"}}, {"type": "node", "id": 9068656655, "lat": 55.6662732, "lon": 12.5989448, "tags": {"fvst:navnelbnr": "715080", "name": "f\u00f8tex food Bagerudsalg", "operator": "f\u00f8tex", "ref:DK:cvr": "35954716", "ref:DK:cvr:pnummer": "1021741422", "shop": "bakery"}}, {"type": "node", "id": 9068656657, "lat": 55.6613983, "lon": 12.5602861, "tags": {"fvst:navnelbnr": "113866", "level": "0", "name": "f\u00f8tex Bager", "operator": "f\u00f8tex", "ref:DK:cvr": "35954716", "ref:DK:cvr:pnummer": "1007949592", "shop": "bakery"}}, {"type": "node", "id": 9072338854, "lat": 55.6641765, "lon": 12.5127398, "tags": {"fvst:navnelbnr": "982785", "name": "Bodenhoffs Bageri", "opening_hours": "Mo-Fr 06:00-18:00; Sa,Su 06:00-17:00; PH 06:00-17:00", "ref:DK:cvr": "21061883", "ref:DK:cvr:pnummer": "1026856058", "shop": "bakery"}}, {"type": "node", "id": 9072338868, "lat": 55.667853, "lon": 12.487092, "tags": {"fvst:navnelbnr": "526002", "name": "Cake Chalet", "opening_hours": "12:00-17:30; Sa 10:00-13:00 ; Su-Tu off", "phone": "+45 40647381", "ref:DK:cvr": "35229248", "ref:DK:cvr:pnummer": "1018427369", "shop": "bakery", "website": "http://www.cakechalet.dk/"}}, {"type": "node", "id": 9084108559, "lat": 55.6682699, "lon": 12.6068323, "tags": {"branch": "Vermlandsgade", "brand": "Lagkagehuset", "brand:wikidata": "Q12323572", "fvst:navnelbnr": "636677", "name": "Lagkagehuset Vermlandsgade", "operator": "Lagkagehuset", "ref:DK:cvr": "20213094", "ref:DK:cvr:pnummer": "1021225394", "shop": "bakery"}}, {"type": "node", "id": 9084108561, "lat": 55.6650802, "lon": 12.5810663, "tags": {"fvst:navnelbnr": "111929", "name": "Morells Br\u00f8d og Kager", "phone": "+45 32550665", "ref:DK:cvr": "18223848", "ref:DK:cvr:pnummer": "1001457850", "shop": "bakery"}}, {"type": "node", "id": 9084325434, "lat": 55.671887, "lon": 12.5913, "tags": {"amenity": "cafe", "cuisine": "coffee_shop", "fvst:navnelbnr": "982470", "name": "Riccos Kaffe Christianshavn", "ref:DK:cvr": "38310976", "ref:DK:cvr:pnummer": "1026902602", "shop": "bakery"}}, {"type": "node", "id": 9084325436, "lat": 55.6772344, "lon": 12.5956255, "tags": {"fvst:navnelbnr": "697692", "name": "f\u00f8tex food Bagerudsalg", "operator": "f\u00f8tex", "ref:DK:cvr": "35954716", "ref:DK:cvr:pnummer": "1021741384", "shop": "bakery"}}, {"type": "node", "id": 9087814782, "lat": 55.6692461, "lon": 12.4926617, "tags": {"fvst:navnelbnr": "935002", "name": "Ostekagehuset", "phone": "+45 27636337", "ref:DK:cvr": "38831364", "ref:DK:cvr:pnummer": "1022731358", "shop": "bakery", "website": "https://ostekagehuset.dk/"}}, {"type": "node", "id": 9088018026, "lat": 55.6668831, "lon": 12.5469124, "tags": {"facebook": "https://m.facebook.com/Bageriet-BR%C3%98D-330089827074995/", "fvst:name": "Bageriet BR\u00d8D Produktion", "fvst:navnelbnr": "512919", "name": "Br\u00f8d", "phone": "+45 2070 0422", "ref:DK:cvr": "34604673", "ref:DK:cvr:pnummer": "1017767425", "shop": "bakery", "wholesale": "only"}}, {"type": "node", "id": 9088018028, "lat": 55.6638784, "lon": 12.5359234, "tags": {"fvst:navnelbnr": "661887", "name": "f\u00f8tex Bagerudsalg", "operator": "f\u00f8tex", "ref:DK:cvr": "35954716", "ref:DK:cvr:pnummer": "1021411945", "shop": "bakery"}}, {"type": "node", "id": 9088049728, "lat": 55.6729595, "lon": 12.5513074, "tags": {"fvst:navnelbnr": "115587", "name": "f\u00f8tex Bagerudsalg", "operator": "f\u00f8tex", "ref:DK:cvr": "35954716", "ref:DK:cvr:pnummer": "1003224497", "shop": "bakery"}}, {"type": "node", "id": 9091138284, "lat": 55.6712611, "lon": 12.5013547, "tags": {"branch": "Domus Vista", "fvst:navnelbnr": "717764", "name": "Bodenhoffs Bageri", "opening_hours": "Mo-Su 06:30-20:00", "ref:DK:cvr": "21061883", "ref:DK:cvr:pnummer": "1022749885", "shop": "bakery"}}, {"type": "node", "id": 9091344372, "lat": 55.6697468, "lon": 12.5465416, "tags": {"fvst:navnelbnr": "552914", "name": "Bodenhoffs Bageri", "ref:DK:cvr": "21061883", "ref:DK:cvr:pnummer": "1019795620", "shop": "bakery"}}, {"type": "node", "id": 9091517110, "lat": 55.6786381, "lon": 12.5470845, "tags": {"amenity": "cafe", "fvst:navnelbnr": "717825", "name": "Grannys House", "opening_hours": "Mo-Fr 07:00-18:00; Sa,Su 07:00-17:00", "phone": "+45 33323334", "ref:DK:cvr": "31262208", "ref:DK:cvr:pnummer": "1022913332", "shop": "bakery", "website": "https://grannyshouse.dk/frederiksberg/"}}, {"type": "node", "id": 9091794503, "lat": 55.6847617, "lon": 12.5857013, "tags": {"fvst:navnelbnr": "1014927", "name": "Queens Delight", "phone": "+45 53872053", "ref:DK:cvr": "40485082", "ref:DK:cvr:pnummer": "1024663473", "shop": "bakery", "website": "https://www.queensdelight.dk/"}}, {"type": "node", "id": 9094826544, "lat": 55.6785472, "lon": 12.5736805, "tags": {"amenity": "cafe", "branch": "Skoubogade", "fvst:navnelbnr": "992432", "name": "Grannys", "ref:DK:cvr": "31262208", "ref:DK:cvr:pnummer": "1027081610", "shop": "bakery"}}, {"type": "node", "id": 9094826546, "lat": 55.6793326, "lon": 12.5802861, "tags": {"fvst:navnelbnr": "948774", "name": "Holms bager Bake off", "ref:DK:cvr": "14699082", "ref:DK:cvr:pnummer": "1000787372", "shop": "bakery"}}, {"type": "node", "id": 9094826549, "lat": 55.6800602, "lon": 12.5824636, "tags": {"fvst:navnelbnr": "576899", "name": "f\u00f8tex food Bagerudsalg", "operator": "f\u00f8tex", "ref:DK:cvr": "35954716", "ref:DK:cvr:pnummer": "1003016878", "shop": "bakery"}}, {"type": "node", "id": 9094826551, "lat": 55.6811035, "lon": 12.5890692, "tags": {"branch": "Store Strandstr\u00e6de", "fvst:navnelbnr": "1244621", "name": "Farumhus", "name:da": "Farumhus", "ref:DK:cvr": "28504462", "ref:DK:cvr:pnummer": "1028389775", "shop": "bakery"}}, {"type": "node", "id": 9094826555, "lat": 55.6849762, "lon": 12.5678355, "tags": {"check_date": "2023-05-15", "diet:vegan": "yes", "fvst:navnelbnr": "520987", "name": "Landbageriet", "payment:credit_cards": "yes", "payment:debit_cards": "yes", "ref:DK:cvr": "34893101", "ref:DK:cvr:pnummer": "1018150251", "shop": "bakery"}}, {"type": "node", "id": 9094826557, "lat": 55.6799551, "lon": 12.5480753, "tags": {"branch": "H. C. \u00d8rsteds Vej", "fvst:navnelbnr": "129240", "name": "emmerys", "operator": "Emmerys", "ref:DK:cvr": "33388446", "ref:DK:cvr:pnummer": "1016860871", "shop": "bakery", "website": "https://emmerys.dk/locations/h-c-orstedsvej"}}, {"type": "node", "id": 9094826559, "lat": 55.6809324, "lon": 12.5491505, "tags": {"fvst:navnelbnr": "112428", "name": "Det Franske Conditori", "ref:DK:cvr": "18237571", "ref:DK:cvr:pnummer": "1001461195", "shop": "bakery"}}, {"type": "node", "id": 9094826561, "lat": 55.6864405, "lon": 12.5342281, "tags": {"amenity": "cafe", "branch": "Godth\u00e5bsvej", "fvst:navnelbnr": "542743", "name": "emmerys", "ref:DK:cvr": "33388446", "ref:DK:cvr:pnummer": "1019228912", "shop": "bakery", "website": "https://emmerys.dk/butik/emmerys-godthabsvej-28/"}}, {"type": "node", "id": 9095746139, "lat": 55.6883728, "lon": 12.5259459, "tags": {"fvst:navnelbnr": "750947", "name": "Vagns konditori", "ref:DK:cvr": "39527030", "ref:DK:cvr:pnummer": "1023624512", "shop": "bakery"}}, {"type": "node", "id": 9095746143, "lat": 55.6849741, "lon": 12.4833646, "tags": {"fvst:navnelbnr": "119812", "name": "Bageriet Sl\u00f8jfen", "ref:DK:cvr": "31209730", "ref:DK:cvr:pnummer": "1014163820", "shop": "bakery"}}, {"type": "node", "id": 9095777759, "lat": 55.6756233, "lon": 12.5640785, "tags": {"fvst:navnelbnr": "948906", "name": "Nimb Bageri", "ref:DK:cvr": "10404916", "ref:DK:cvr:pnummer": "1022520454", "shop": "bakery"}}, {"type": "node", "id": 9095777762, "lat": 55.6816207, "lon": 12.5222554, "tags": {"fvst:navnelbnr": "114847", "name": "f\u00f8tex Bager", "operator": "f\u00f8tex", "ref:DK:cvr": "35954716", "ref:DK:cvr:pnummer": "1003224692", "shop": "bakery"}}, {"type": "node", "id": 9101970188, "lat": 55.6835381, "lon": 12.5368485, "tags": {"fvst:navnelbnr": "1010650", "name": "Mabelles Kage", "ref:DK:cvr": "42460974", "ref:DK:cvr:pnummer": "1027253667", "shop": "bakery"}}, {"type": "node", "id": 9101970191, "lat": 55.681844, "lon": 12.5326174, "tags": {"branch": "Frederiksberg Centret", "fvst:navnelbnr": "113415", "name": "f\u00f8tex Frederiksberg Centeret Bagerudsalg", "operator": "f\u00f8tex", "ref:DK:cvr": "35954716", "ref:DK:cvr:pnummer": "1004049898", "shop": "bakery"}}, {"type": "node", "id": 9105244230, "lat": 55.7078281, "lon": 12.4855429, "tags": {"fvst:navnelbnr": "943793", "name": "SweetBites", "ref:DK:cvr": "35832920", "ref:DK:cvr:pnummer": "1019314576", "shop": "bakery"}}, {"type": "node", "id": 9105244231, "lat": 55.7036071, "lon": 12.5485519, "tags": {"fvst:navnelbnr": "1010500", "name": "Bageriet Blond", "ref:DK:cvr": "42105635", "ref:DK:cvr:pnummer": "1026781856", "shop": "bakery", "website": "https://www.bagerietb.dk/"}}, {"type": "node", "id": 9106162225, "lat": 55.6789378, "lon": 12.5198868, "tags": {"fvst:navnelbnr": "116872", "name": "Alterbr\u00f8dsbageriet Den Danske Diakonissestiftelsen", "ref:DK:cvr": "62572019", "ref:DK:cvr:pnummer": "1014910375", "shop": "bakery", "website": "https://www.diakonissestiftelsen.dk/alterbroed"}}, {"type": "node", "id": 9106319729, "lat": 55.700139, "lon": 12.540203, "tags": {"fvst:navnelbnr": "990567", "name": "BroensBager", "ref:DK:cvr": "42399248", "ref:DK:cvr:pnummer": "1027177715", "shop": "bakery"}}, {"type": "node", "id": 9106319731, "lat": 55.6877161, "lon": 12.4931465, "tags": {"fvst:navnelbnr": "715101", "name": "f\u00f8tex Bager", "opening_hours": "Mo-Su 07:00-21:00", "operator": "f\u00f8tex", "ref:DK:cvr": "35954716", "ref:DK:cvr:pnummer": "1011335809", "shop": "bakery"}}, {"type": "node", "id": 9109542980, "lat": 55.685455, "lon": 12.551971, "tags": {"fvst:navnelbnr": "737204", "name": "Br\u00f8dv\u00e6rten", "ref:DK:cvr": "35942785", "ref:DK:cvr:pnummer": "1023303600", "shop": "bakery", "website": "https://broedvaerten.dk/"}}, {"type": "node", "id": 9109551217, "lat": 55.6942317, "lon": 12.5318956, "tags": {"fvst:navnelbnr": "511828", "name": "Bodenhoffs Bageri", "ref:DK:cvr": "21061883", "ref:DK:cvr:pnummer": "1017896357", "shop": "bakery"}}, {"type": "node", "id": 9109551223, "lat": 55.6834986, "lon": 12.5867919, "tags": {"fvst:navnelbnr": "757300", "name": "f\u00f8tex food Bagerudsalg", "opening_hours": "Mo-Su 07:00-22:00", "operator": "f\u00f8tex", "ref:DK:cvr": "35954716", "ref:DK:cvr:pnummer": "1021741406", "shop": "bakery"}}, {"type": "node", "id": 9151013607, "lat": 55.7311436, "lon": 12.5758316, "tags": {"fvst:navnelbnr": "635883", "name": "Taffelbay", "operator": "\u00d8vrige engros-k\u00e6der", "ref:DK:cvr": "20222271", "ref:DK:cvr:pnummer": "1021167289", "shop": "bakery"}}, {"type": "node", "id": 9151044945, "lat": 55.6973785, "lon": 12.5811734, "tags": {"access": "private", "fvst:navnelbnr": "992202", "level": "3", "name": "Entremasasdk", "shop": "bakery"}}, {"type": "node", "id": 9152241642, "lat": 55.713886, "lon": 12.560049, "tags": {"fvst:navnelbnr": "913742", "name": "Sweet Valentine", "ref:DK:cvr": "32274579", "ref:DK:cvr:pnummer": "1025008649", "shop": "bakery", "website": "https://sweetvalentine.dk/k", "wholesale": "only"}}, {"type": "node", "id": 9152669131, "lat": 55.7110335, "lon": 12.5295779, "tags": {"fvst:navnelbnr": "1112435", "name": "Nivos Cookies", "ref:DK:cvr": "41499664", "ref:DK:cvr:pnummer": "1026020073", "shop": "bakery", "wholesale": "only"}}, {"type": "node", "id": 9155476565, "lat": 55.6791944, "lon": 12.5845787, "tags": {"branch": "Magasin", "brand": "Lagkagehuset", "brand:wikidata": "Q12323572", "fvst:navnelbnr": "701884", "name": "Lagkagehuset", "operator": "Lagkagehuset", "ref:DK:cvr": "20213094", "ref:DK:cvr:pnummer": "1022366846", "shop": "bakery"}}, {"type": "node", "id": 9155476576, "lat": 55.716462, "lon": 12.5986043, "tags": {"fvst:navnelbnr": "992795", "name": "MyElla", "ref:DK:cvr": "39392712", "ref:DK:cvr:pnummer": "1023414666", "shop": "bakery", "website": "https://myella.dk/"}}, {"type": "node", "id": 9155650838, "lat": 55.6915, "lon": 12.530791, "tags": {"fvst:navnelbnr": "115711", "name": "Krumme & Co", "ref:DK:cvr": "32277411", "ref:DK:cvr:pnummer": "1015362533", "shop": "bakery"}}, {"type": "node", "id": 9156241471, "lat": 55.6840586, "lon": 12.5694641, "tags": {"fvst:navnelbnr": "577737", "name": "Honningkagebageriet", "ref:DK:cvr": "34458375", "ref:DK:cvr:pnummer": "1021296933", "shop": "bakery"}}, {"type": "node", "id": 9165870172, "lat": 55.681096, "lon": 12.5760815, "tags": {"fvst:navnelbnr": "960185", "name": "Emmerys", "ref:DK:cvr": "33388446", "shop": "bakery"}}, {"type": "node", "id": 9167180326, "lat": 55.711304, "lon": 12.524392, "tags": {"fvst:navnelbnr": "961020", "name": "Ta Touche", "ref:DK:cvr": "41062037", "ref:DK:cvr:pnummer": "1025402584", "shop": "bakery", "website": "https://tatouche.dk/"}}, {"type": "node", "id": 9180771140, "lat": 55.6457997, "lon": 12.5478794, "tags": {"branch": "Sluseholmen", "brand": "Lagkagehuset", "brand:wikidata": "Q12323572", "brand:wikipedia": "da:Lagkagehuset", "fvst:navnelbnr": "1115886", "name": "Lagkagehuset", "opening_hours": "Mo-Fr 06:30-19:00; Sa,Su 06:30-18:00", "operator": "Lagkagehuset", "ref:DK:cvr": "20213094", "ref:DK:cvr:pnummer": "1027522242", "shop": "bakery"}}, {"type": "node", "id": 9216533672, "lat": 55.6967085, "lon": 12.5456126, "tags": {"fvst:navnelbnr": "981286", "name": "Collective Bakery", "opening_hours": "07:00-18:00; Sa-Su 07:00-16:00", "ref:DK:cvr": "30706595", "ref:DK:cvr:pnummer": "1026750071", "shop": "bakery", "website": "https://www.collectivebakery.dk/"}}, {"type": "node", "id": 9238448138, "lat": 55.6472214, "lon": 12.6136762, "tags": {"fvst:navnelbnr": "1120061", "name": "Sundby Bageri", "opening_hours": "Tu-Fr 06:00-17:30; Sa,Su 06:00-16:00", "ref:DK:cvr": "42640468", "ref:DK:cvr:pnummer": "1027499003", "shop": "bakery"}}, {"type": "node", "id": 9294133946, "lat": 55.6576499, "lon": 12.6121998, "tags": {"amenity": "cafe", "cuisine": "coffee_shop", "fvst:navnelbnr": "1118138", "name": "Caf\u00e9 Bette", "ref:DK:cvr": "42597392", "ref:DK:cvr:pnummer": "1027437881", "shop": "bakery"}}, {"type": "node", "id": 9328625850, "lat": 55.642076, "lon": 12.59908, "tags": {"fvst:navnelbnr": "1146889", "name": "Heras Cakery", "ref:DK:cvr": "42744174", "ref:DK:cvr:pnummer": "1027614619", "shop": "bakery"}}, {"type": "node", "id": 9350753015, "lat": 55.6796096, "lon": 12.6010842, "tags": {"branch": "M\u00e6rsehuset", "fvst:navnelbnr": "1145733", "name": "Hart", "opening_hours": "08:00-18:00", "ref:DK:cvr": "39311895", "ref:DK:cvr:pnummer": "1027364051", "shop": "bakery", "website": "https://hartbageri.com/"}}, {"type": "node", "id": 9350829302, "lat": 55.6584136, "lon": 12.5427014, "tags": {"air_conditioning": "no", "amenity": "cafe", "check_date": "2022-05-27", "diet:vegan": "yes", "diet:vegetarian": "yes", "fvst:navnelbnr": "1144493", "indoor_seating": "yes", "name": "Perron", "opening_hours": "Tu-Fr 08:30-16:00; Sa-Su 08:00-17:00", "outdoor_seating": "yes", "ref:DK:cvr": "42538140", "ref:DK:cvr:pnummer": "1027364043", "shop": "bakery", "smoking": "outside", "website": "https://www.perroncph.dk/"}}, {"type": "node", "id": 9358663327, "lat": 55.677008, "lon": 12.5707376, "tags": {"fvst:navnelbnr": "1203348", "name": "Buka", "ref:DK:cvr": "40383646", "ref:DK:cvr:pnummer": "1027008174", "shop": "bakery"}}, {"type": "node", "id": 9362862459, "lat": 55.7202692, "lon": 12.4703717, "tags": {"fvst:navnelbnr": "1244250", "name": "Bagerhj\u00f8rnet", "ref:DK:cvr": "32870082", "ref:DK:cvr:pnummer": "1028349315", "shop": "bakery"}}, {"type": "node", "id": 9425571712, "lat": 55.6730587, "lon": 12.565674, "tags": {"branch": "Hovedbaneg\u00e5rden", "brand": "Lagkagehuset", "brand:wikidata": "Q12323572", "fvst:navnelbnr": "131512", "name": "Lagkagehuset", "ref:DK:cvr": "20213094", "ref:DK:cvr:pnummer": "1017420824", "shop": "bakery", "source": "https://hovedbanen.dk"}}, {"type": "node", "id": 9512347002, "lat": 55.7074861, "lon": 12.5247905, "tags": {"check_date": "2023-04-27", "fvst:navnelbnr": "989386", "name": "Flere Fugle", "ref:DK:cvr": "37363464", "ref:DK:cvr:pnummer": "1027141532", "shop": "bakery"}}, {"type": "node", "id": 9528123540, "lat": 55.681984, "lon": 12.5351246, "tags": {"fvst:navnelbnr": "1205408", "name": "Daniali-Schi\u00f8tz Foodshop", "ref:DK:cvr": "42890340", "ref:DK:cvr:pnummer": "1027795559", "shop": "bakery"}}, {"type": "node", "id": 9556513833, "lat": 55.6567754, "lon": 12.5901317, "tags": {"fvst:navnelbnr": "1208208", "name": "Bake My Day", "ref:DK:cvr": "39158337", "ref:DK:cvr:pnummer": "1023208950", "shop": "bakery"}}, {"type": "node", "id": 9579551690, "lat": 55.6718866, "lon": 12.5920577, "tags": {"fvst:navnelbnr": "1212914", "name": "Bodenhoffs Bageri Christianshavn", "opening_hours": "Mo-Fr 06:00-18:00; PH,Sa,Su 06:00-17:00", "ref:DK:cvr": "21061883", "ref:DK:cvr:pnummer": "1027849144", "shop": "bakery", "wheelchair": "yes"}}, {"type": "node", "id": 9622507946, "lat": 55.6852271, "lon": 12.5867256, "tags": {"fvst:navnelbnr": "115118", "name": "SuperBrugsen Bager", "operator": "SuperBrugsen", "ref:DK:cvr": "26259495", "ref:DK:cvr:pnummer": "1003078830", "shop": "bakery"}}, {"type": "node", "id": 9626507157, "lat": 55.7042831, "lon": 12.4993482, "tags": {"fvst:navnelbnr": "115463", "name": "SuperBrugsen Bager/Kiosk", "operator": "SuperBrugsen", "ref:DK:cvr": "26259495", "ref:DK:cvr:pnummer": "1003079369", "shop": "bakery"}}, {"type": "node", "id": 9626983101, "lat": 55.7103306, "lon": 12.478502, "tags": {"fvst:navnelbnr": "1216515", "name": "Damas Sweet", "ref:DK:cvr": "42169994", "ref:DK:cvr:pnummer": "1026861361", "shop": "bakery"}}, {"type": "node", "id": 9629416928, "lat": 55.6814218, "lon": 12.5191211, "tags": {"fvst:navnelbnr": "113669", "name": "SuperBrugsen Bager/ Bake-off", "operator": "SuperBrugsen", "ref:DK:cvr": "26259495", "ref:DK:cvr:pnummer": "1008431740", "shop": "bakery"}}, {"type": "node", "id": 9642693733, "lat": 55.6986474, "lon": 12.5239916, "tags": {"fvst:navnelbnr": "1215040", "name": "Skruens", "ref:DK:cvr": "42918385", "ref:DK:cvr:pnummer": "1027828767", "shop": "bakery"}}, {"type": "node", "id": 9645439912, "lat": 55.6836489, "lon": 12.5698991, "tags": {"fvst:navnelbnr": "1202296", "name": "Albatross og Venner", "ref:DK:cvr": "42653942", "ref:DK:cvr:pnummer": "1027504201", "shop": "bakery", "website": "https://www.albatrossogvenner.dk/"}}, {"type": "node", "id": 9714064111, "lat": 55.6960439, "lon": 12.5214702, "tags": {"fvst:navnelbnr": "1215487", "name": "Bageriet Baghaven", "ref:DK:cvr": "42371270", "ref:DK:cvr:pnummer": "1027144108", "shop": "bakery", "website": "https://www.bagerietbaghaven.dk/"}}, {"type": "node", "id": 9723696778, "lat": 55.6659667, "lon": 12.6213794, "tags": {"check_date": "2023-04-10", "fvst:navnelbnr": "1014504", "name": "AMAR", "opening_hours": "We-Fr 07:30-17:00; Sa, Su 08:00-15:00", "payment:credit_cards": "yes", "payment:debit_cards": "yes", "phone": "+45 53 82 07 77", "ref:DK:cvr": "42056995", "ref:DK:cvr:pnummer": "1026724496", "shop": "bakery", "website": "https://www.amarcph.dk/", "wheelchair": "limited"}}, {"type": "node", "id": 9806695501, "lat": 55.6753163, "lon": 12.5457476, "tags": {"fvst:navnelbnr": "1229734", "name": "Meyers Bageri", "opening_hours": "Mo-Su 07:00-22:00", "ref:DK:cvr": "41810556", "ref:DK:cvr:pnummer": "1026471369", "shop": "bakery"}}, {"type": "node", "id": 9934564006, "lat": 55.6718146, "lon": 12.59289, "tags": {"fvst:navnelbnr": "1236702", "name": "Munchies Cookies", "ref:DK:cvr": "37911178", "ref:DK:cvr:pnummer": "1021638982", "shop": "bakery"}}, {"type": "node", "id": 9934564010, "lat": 55.7003923, "lon": 12.5776852, "tags": {"air_conditioning": "no", "amenity": "fast_food", "diet:vegetarian": "yes", "fvst:navnelbnr": "1246265", "indoor_seating": "yes", "name": "BUKA \u00d8sterbro", "opening_hours": "\"summer 08:00-15:00\"", "outdoor_seating": "yes", "ref:DK:cvr": "40383646", "ref:DK:cvr:pnummer": "1028422373", "shop": "bakery", "smoking": "outside", "website": "https://www.buka-bakery.com/"}}, {"type": "node", "id": 9938231853, "lat": 55.6995643, "lon": 12.5411809, "tags": {"fvst:navnelbnr": "644349", "name": "Om Hamzas Marokkanisk bageri", "ref:DK:cvr": "33445377", "ref:DK:cvr:pnummer": "1016708395", "shop": "bakery"}}, {"type": "node", "id": 9942956365, "lat": 55.6901848, "lon": 12.5997722, "tags": {"fvst:navnelbnr": "1274043", "name": "The Cookie Aisle", "ref:DK:cvr": "42779547", "ref:DK:cvr:pnummer": "1027658306", "shop": "bakery"}}, {"type": "node", "id": 9942956372, "lat": 55.7012472, "lon": 12.5357242, "tags": {"fvst:navnelbnr": "1243009", "name": "\u00d8stens bazar bager", "ref:DK:cvr": "35408266", "ref:DK:cvr:pnummer": "1028130542", "shop": "bakery"}}, {"type": "node", "id": 9942956375, "lat": 55.6779305, "lon": 12.5345888, "tags": {"branch": "Gammel Kongevej", "fvst:navnelbnr": "1246266", "name": "Buka", "ref:DK:cvr": "40383646", "ref:DK:cvr:pnummer": "1028422365", "shop": "bakery"}}, {"type": "node", "id": 10093612914, "lat": 55.702881, "lon": 12.531105, "tags": {"fvst:navnelbnr": "1253946", "name": "Nordvest Bazar Bageri", "ref:DK:cvr": "35680144", "ref:DK:cvr:pnummer": "1026977866", "shop": "bakery"}}, {"type": "node", "id": 10247278218, "lat": 55.7096644, "lon": 12.5772087, "tags": {"fvst:navnelbnr": "1256827", "name": "Skipper bageri", "ref:DK:cvr": "43353993", "ref:DK:cvr:pnummer": "1028368395", "shop": "bakery"}}, {"type": "node", "id": 10699341089, "lat": 55.697057, "lon": 12.585822, "tags": {"fvst:navnelbnr": "1269828", "name": "Galst Bageri", "ref:DK:cvr": "43017888", "ref:DK:cvr:pnummer": "1027950848", "shop": "bakery"}}, {"type": "node", "id": 10700079113, "lat": 55.7028643, "lon": 12.5373576, "tags": {"fvst:navnelbnr": "1257290", "name": "B.G Bageri", "ref:DK:cvr": "42849065", "ref:DK:cvr:pnummer": "1028660142", "shop": "bakery"}}, {"type": "node", "id": 10702011311, "lat": 55.6792797, "lon": 12.5807133, "tags": {"branch": "Illum", "brand": "Lagkagehuset", "brand:wikidata": "Q12323572", "fvst:navnelbnr": "1248076", "name": "Lagkagehuset", "operator": "Lagkagehuset", "ref:DK:cvr": "20213094", "ref:DK:cvr:pnummer": "1028463746", "shop": "bakery"}}, {"type": "node", "id": 10785357221, "lat": 55.6707753, "lon": 12.5335061, "tags": {"fvst:navnelbnr": "1251727", "name": "Crownbakers", "ref:DK:cvr": "41534729", "ref:DK:cvr:pnummer": "1026054644", "shop": "bakery", "website": "https://www.crownbakers.dk/"}}, {"type": "node", "id": 10791110337, "lat": 55.7025907, "lon": 12.5331683, "tags": {"fvst:navnelbnr": "1274279", "name": "Ihsan Sweets", "ref:DK:cvr": "20196130", "ref:DK:cvr:pnummer": "1028780474", "shop": "bakery"}}, {"type": "node", "id": 10807672190, "lat": 55.7031426, "lon": 12.5295798, "tags": {"fvst:navnelbnr": "1283844", "name": "Mesterbageriet", "ref:DK:cvr": "41391642", "ref:DK:cvr:pnummer": "1029096569", "shop": "bakery"}}, {"type": "node", "id": 10820251777, "lat": 55.6784518, "lon": 12.5017105, "tags": {"fvst:navnelbnr": "1222855", "name": "Ard Bakery", "ref:DK:cvr": "43080520", "ref:DK:cvr:pnummer": "1028027962", "shop": "bakery"}}, {"type": "node", "id": 10827373084, "lat": 55.6559209, "lon": 12.5041468, "tags": {"fvst:navnelbnr": "1120055", "name": "Cakes and Friends Bakery", "ref:DK:cvr": "41755709", "ref:DK:cvr:pnummer": "1026357930", "shop": "bakery"}}, {"type": "node", "id": 10827373085, "lat": 55.6537252, "lon": 12.5099004, "tags": {"fvst:name": "f\u00f8tex food 1205 Bagerudsalg", "fvst:navnelbnr": "1256386", "name": "F\u00f8tex Bager", "opening_hours": "Mo-Su 07:00-22:00", "ref:DK:cvr": "35954716", "ref:DK:cvr:pnummer": "1028466435", "shop": "bakery"}}, {"type": "node", "id": 10832230254, "lat": 55.6729338, "lon": 12.5658207, "tags": {"amenity": "cafe", "branch": "Hovedbaneg\u00e5rden KBH", "brand": "Joe & The Juice", "brand:wikidata": "Q26221514", "brand:wikipedia": "en:Joe & The Juice", "cuisine": "coffee_shop", "fvst:navnelbnr": "551591", "name": "Joe & The Juice", "opening_hours": "Mo-Sa 06:00-22:00; Su 08:00-18:00", "outdoor_seating": "no", "ref:DK:cvr": "26589355", "ref:DK:cvr:pnummer": "1019706261", "shop": "bakery", "source": "https://hovedbanen.dk", "takeaway": "yes", "website": "https://www.joejuice.com/stores/denmark-sjaelland/hovedbanegaarden/"}}, {"type": "node", "id": 10833912066, "lat": 55.6366652, "lon": 12.582893, "tags": {"branch": "\u00d8restaden", "fvst:navnelbnr": "1216830", "name": "Andersen Bakery Europe", "opening_hours": "07:00-18:00; Sa-Su 07:00-18:00", "ref:DK:cvr": "38748068", "ref:DK:cvr:pnummer": "1027987288", "shop": "bakery", "website": "https://andersen-bakery-eu.dk/"}}, {"type": "node", "id": 10833912071, "lat": 55.6301305, "lon": 12.5783794, "tags": {"branch": "Fiels", "brand": "Lagkagehuset", "fvst:navnelbnr": "1149510", "level": "0", "name": "Lagkagehuset - Fields", "opening_hours": "Mo-Su 08:00-20:00", "ref:DK:cvr": "20213094", "ref:DK:cvr:pnummer": "1027741564", "shop": "bakery"}}, {"type": "node", "id": 10905241410, "lat": 55.6707727, "lon": 12.5335285, "tags": {"fvst:navnelbnr": "1293293", "name": "IDAS Bakery vesterbro", "ref:DK:cvr": "41370270", "ref:DK:cvr:pnummer": "1029220529", "shop": "bakery"}}, {"type": "node", "id": 10905241411, "lat": 55.670342, "lon": 12.5403125, "tags": {"amenity": "cafe", "fvst:name": "MUSIK CONDITORI", "fvst:navnelbnr": "1274283", "name": "Music Conditoriet", "ref:DK:cvr": "38651641", "ref:DK:cvr:pnummer": "1022455474", "shop": "bakery", "website": "https://www.musikconditoriet.dk/"}}, {"type": "node", "id": 10909125999, "lat": 55.6826637, "lon": 12.5358365, "tags": {"fvst:navnelbnr": "1279458", "name": "For Emma", "ref:DK:cvr": "37574643", "ref:DK:cvr:pnummer": "1028947255", "shop": "bakery", "website": "https://foremma.dk/"}}, {"type": "node", "id": 10909998419, "lat": 55.6647617, "lon": 12.5354977, "tags": {"amenity": "cafe", "fvst:navnelbnr": "1282820", "name": "K\u00f8benhavns Bageri", "ref:DK:cvr": "43374974", "ref:DK:cvr:pnummer": "1028393411", "shop": "bakery", "website": "https://www.carlsbergbyen.dk/en/eat-and-drink/eateries-in-the-carlsberg-city-district/kobenhavns-bageri"}}, {"type": "node", "id": 10916802085, "lat": 55.6815387, "lon": 12.5822518, "tags": {"fvst:navnelbnr": "1295318", "name": "Andersen & Maillard City", "ref:DK:cvr": "41211342", "ref:DK:cvr:pnummer": "1029110138", "shop": "bakery"}}, {"type": "node", "id": 10919379569, "lat": 55.6420466, "lon": 12.6160913, "tags": {"fvst:navnelbnr": "112253", "name": "SuperBrugsen Bager", "operator": "SuperBrugsen", "ref:DK:cvr": "26259495", "ref:DK:cvr:pnummer": "1003078647", "shop": "bakery"}}]}